     3.02           N: GNSS NAV DATA    G: GPS              RINEX VERSION / TYPE                                                
Версия от 220825                        20230327 01:07:14UTCPGM / RUN BY / DATE                                                 
GPUT  0.1862645149D-08 0.177635684D-14 503808 2254          TIME SYSTEM CORR
                                                            END OF HEADER                                                       
G08 2023 03 23 06 00 00-0.114254653454D-03-0.181898940355D-11 0.000000000000D+00
     0.790000000000D+02-0.893750000000D+02 0.482698677766D-08 0.180360967862D+01
    -0.461190938950D-05 0.842738407664D-02 0.489875674248D-05 0.515367066002D+04
     0.367200000000D+06-0.745058059692D-07 0.243000220367D+01 0.163912773132D-06
     0.959463236992D+00 0.284906250000D+03 0.241084848643D+00-0.849856828520D-08
    -0.461804950315D-09 0.100000000000D+01 0.225400000000D+04 0.000000000000D+00
     0.200000000000D+01 0.000000000000D+00 0.512227416039D-08 0.790000000000D+02
     0.360000000000D+06
G09 2023 03 23 06 00 00-0.195157248527D-03 0.761701812735D-11 0.000000000000D+00
     0.103000000000D+03-0.650625000000D+02 0.505199615020D-08 0.215740274805D+01
    -0.331178307533D-05 0.239307328593D-02 0.578723847866D-05 0.515364416885D+04
     0.367200000000D+06 0.409781932831D-07-0.707404001165D+00-0.260770320892D-07
     0.955779250854D+00 0.260250000000D+03 0.197158906860D+01-0.840070706603D-08
    -0.602525097589D-09 0.100000000000D+01 0.225400000000D+04 0.000000000000D+00
     0.200000000000D+01 0.000000000000D+00 0.139698386192D-08 0.103000000000D+03
     0.360000000000D+06
G10 2023 03 23 06 00 00-0.296952202916D-04-0.159161572810D-11 0.000000000000D+00
     0.510000000000D+02 0.625937500000D+02 0.460340603605D-08-0.250882269810D+01
     0.314414501190D-05 0.845649791881D-02 0.565499067307D-05 0.515367977142D+04
     0.367200000000D+06 0.111758708954D-06-0.173551658984D+01-0.109896063805D-06
     0.977408130389D+00 0.279781250000D+03-0.243013574322D+01-0.810426614664D-08
     0.537165232231D-09 0.100000000000D+01 0.225400000000D+04 0.000000000000D+00
     0.200000000000D+01 0.000000000000D+00 0.232830643654D-08 0.510000000000D+02
     0.360000000000D+06
G11 2023 03 23 06 00 00-0.138785224408D-03-0.117097442853D-10 0.000000000000D+00
     0.139000000000D+03-0.224687500000D+02 0.421517557898D-08 0.110520391394D+01
    -0.135600566864D-05 0.749122467823D-03 0.130105763674D-04 0.515372425079D+04
     0.367200000000D+06 0.186264514923D-07-0.272934100321D+01 0.372529029846D-08
     0.965317350919D+00 0.130968750000D+03-0.273565496642D+01-0.782746890264D-08
     0.213580325049D-09 0.100000000000D+01 0.225400000000D+04 0.000000000000D+00
     0.200000000000D+01 0.000000000000D+00-0.884756445885D-08 0.395000000000D+03
     0.360000000000D+06
G12 2023 03 23 06 00 00-0.354885589331D-03-0.466116034659D-11 0.000000000000D+00
     0.860000000000D+02 0.804375000000D+02 0.461162066394D-08-0.180849748396D+01
     0.429712235928D-05 0.894455611706D-02 0.372342765331D-05 0.515363780022D+04
     0.367200000000D+06 0.158324837685D-06 0.147852721036D+01 0.949949026108D-07
     0.965707208347D+00 0.309218750000D+03 0.135217080069D+01-0.830070290045D-08
     0.351086052715D-09 0.100000000000D+01 0.225400000000D+04 0.000000000000D+00
     0.400000000000D+01 0.000000000000D+00-0.125728547573D-07 0.860000000000D+02
     0.360000000000D+06
G14 2023 03 23 06 00 00 0.360514968634D-05 0.105728759081D-10 0.000000000000D+00
     0.440000000000D+02 0.911250000000D+02 0.493913430620D-08-0.174561234257D+01
     0.467151403427D-05 0.284761434887D-02 0.453740358353D-05 0.515366907311D+04
     0.367200000000D+06-0.968575477600D-07 0.144085590680D+01-0.558793544769D-07
     0.949087184765D+00 0.287437500000D+03-0.307603389483D+01-0.848999649958D-08
     0.465019369923D-09 0.100000000000D+01 0.225400000000D+04 0.000000000000D+00
     0.200000000000D+01 0.000000000000D+00-0.791624188423D-08 0.556000000000D+03
     0.360000000000D+06
G15 2023 03 23 06 00 00 0.240104272962D-04 0.341060513165D-11 0.000000000000D+00
     0.400000000000D+02-0.568750000000D+02 0.585560105214D-08 0.843037849625D+00
    -0.279955565929D-05 0.147735188948D-01 0.484101474285D-05 0.515368766022D+04
     0.367200000000D+06-0.171363353729D-06-0.824071223520D+00 0.614672899246D-07
     0.931931282587D+00 0.277343750000D+03 0.118502545688D+01-0.907466371045D-08
    -0.532165023952D-09 0.100000000000D+01 0.225400000000D+04 0.000000000000D+00
     0.200000000000D+01 0.000000000000D+00-0.107102096081D-07 0.400000000000D+02
     0.360000000000D+06
G16 2023  3 23  6  0  0-0.513762701303D-03 0.227373675443D-11 0.000000000000D+00
     0.105000000000D+03 0.801250000000D+02 0.463376444346D-08 0.264534871154D+01
     0.396184623241D-05 0.133957321523D-01 0.327639281750D-05 0.515356913757D+04
     0.367200000000D+06 0.689178705216D-07 0.149685305787D+01-0.197440385819D-06
     0.965425263072D+00 0.320656250000D+03 0.781714743408D+00-0.827391607039D-08
     0.385730352932D-09 0.100000000000D+01 0.225400000000D+04 0.000000000000D+00
     0.200000000000D+01 0.000000000000D+00-0.102445483208D-07 0.105000000000D+03
     0.360000000000D+06
G17 2023 03 23 06 00 00 0.706919468939D-03 0.193267624127D-11 0.000000000000D+00
     0.230000000000D+02-0.988437500000D+02 0.429267880730D-08 0.176317190335D+01
    -0.520609319210D-05 0.135545786470D-01 0.514462590218D-05 0.515373302269D+04
     0.367200000000D+06 0.260770320892D-06 0.251802037128D+01-0.203028321266D-06
     0.975058666399D+00 0.285906250000D+03-0.141459360437D+01-0.811105214359D-08
    -0.368586781690D-09 0.100000000000D+01 0.225400000000D+04 0.000000000000D+00
     0.200000000000D+01 0.000000000000D+00-0.111758708954D-07 0.230000000000D+02
     0.360000000000D+06
G18 2023 03 23 06 00 00-0.191637314856D-03-0.164845914696D-10 0.000000000000D+00
     0.117000000000D+03-0.167812500000D+02 0.392552065655D-08-0.271026710425D+00
    -0.853091478348D-06 0.302402570378D-02 0.129528343677D-04 0.515369108963D+04
     0.367200000000D+06 0.391155481338D-07-0.276185747792D+01 0.186264514923D-08
     0.973833773868D+00 0.136625000000D+03-0.312748040953D+01-0.773496504948D-08
     0.210008747707D-09 0.100000000000D+01 0.225400000000D+04 0.000000000000D+00
     0.200000000000D+01 0.000000000000D+00-0.838190317154D-08 0.885000000000D+03
     0.360000000000D+06
G19 2023 03 23 06 00 00 0.293732155114D-03 0.511590769747D-11 0.000000000000D+00
     0.140000000000D+02-0.983437500000D+02 0.431696553323D-08-0.236022954741D+01
    -0.471249222755D-05 0.919977470767D-02 0.572018325329D-05 0.515360961723D+04
     0.367200000000D+06-0.745058059692D-08 0.256260708902D+01 0.169500708580D-06
     0.974117290318D+00 0.273250000000D+03 0.225771177112D+01-0.809176562595D-08
    -0.357872049664D-09 0.100000000000D+01 0.225400000000D+04 0.000000000000D+00
     0.200000000000D+01 0.000000000000D+00-0.153668224812D-07 0.140000000000D+02
     0.360000000000D+06
G20 2023 03 23 06 00 00 0.443341676146D-03-0.227373675443D-11 0.000000000000D+00
     0.101000000000D+03 0.637187500000D+02 0.522450333582D-08 0.440310433771D+00
     0.333786010742D-05 0.430874712765D-02 0.762566924095D-05 0.515377120209D+04
     0.367200000000D+06 0.353902578354D-07-0.189990041683D+01 0.186264514923D-08
     0.947260820781D+00 0.227437500000D+03-0.289337712091D+01-0.844499462507D-08
     0.554308803472D-09 0.100000000000D+01 0.225400000000D+04 0.000000000000D+00
     0.200000000000D+01 0.000000000000D+00-0.838190317154D-08 0.101000000000D+03
     0.360000000000D+06
G21 2023 03 23 06 00 00 0.154331326485D-03 0.000000000000D+00 0.000000000000D+00
     0.200000000000D+02-0.423750000000D+02 0.418624580251D-08 0.174820414626D+01
    -0.206008553505D-05 0.248145477381D-01 0.130403786898D-04 0.515364571190D+04
     0.367200000000D+06 0.342726707459D-06-0.286556189290D+01 0.191852450371D-06
     0.961902282771D+00 0.124937500000D+03-0.790465227398D+00-0.757102964949D-08
    -0.181078971237D-09 0.100000000000D+01 0.225400000000D+04 0.000000000000D+00
     0.200000000000D+01 0.000000000000D+00-0.102445483208D-07 0.200000000000D+02
     0.360000000000D+06
G22 2023 03 23 06 00 00 0.450465362519D-03 0.716227077646D-11 0.000000000000D+00
     0.760000000000D+02-0.757500000000D+02 0.472948271623D-08 0.157653539392D+01
    -0.424124300480D-05 0.141527522355D-01 0.751949846744D-05 0.515360857201D+04
     0.367200000000D+06-0.195577740669D-06-0.602737432285D+00-0.311061739922D-06
     0.962539155379D+00 0.239781250000D+03-0.181854738006D+01-0.824962934446D-08
    -0.623240246172D-09 0.100000000000D+01 0.225400000000D+04 0.000000000000D+00
     0.200000000000D+01 0.100000000000D+01-0.791624188423D-08 0.760000000000D+02
     0.360018000000D+06
G23 2023 03 23 06 00 00 0.121896155178D-04 0.216004991671D-11 0.000000000000D+00
     0.172000000000D+03 0.637187500000D+02 0.469055252320D-08-0.131326652490D+01
     0.333413481712D-05 0.302844797261D-02 0.612996518612D-05 0.515364607430D+04
     0.367200000000D+06 0.260770320892D-07-0.176240320865D+01 0.242143869400D-07
     0.972543385033D+00 0.268000000000D+03-0.308930951506D+01-0.824391482071D-08
     0.534665128092D-09 0.100000000000D+01 0.225400000000D+04 0.000000000000D+00
     0.200000000000D+01 0.000000000000D+00-0.838190317154D-08 0.172000000000D+03
     0.360000000000D+06
G24 2023 03 23 06 00 00-0.122748780996D-03-0.151203494170D-10 0.000000000000D+00
     0.137000000000D+03 0.740625000000D+01 0.495627787744D-08-0.121744623335D+00
     0.530853867531D-06 0.137617455330D-01 0.127032399178D-04 0.515366601944D+04
     0.367200000000D+06 0.167638063431D-07 0.274434810694D+00 0.206753611565D-06
     0.934533673410D+00 0.120500000000D+03 0.888526478306D+00-0.843249410437D-08
    -0.217866217860D-09 0.100000000000D+01 0.225400000000D+04 0.000000000000D+00
     0.200000000000D+01 0.000000000000D+00 0.232830643654D-08 0.137000000000D+03
     0.360000000000D+06
